start=new Date('2023-02-19T00:00:00.000Z').valueOf();
sats=[{"GP_ID":"225946635","BSTAR":"0.00058583000000","MEAN_ANOMALY":"297.0343","EPOCH":"2023-02-18T15:54:18.768672","ECCENTRICITY":"0.00019280","DECAY_DATE":null,"MEAN_ELEMENT_THEORY":"SGP4","CENTER_NAME":"EARTH","REV_AT_EPOCH":"9984","CLASSIFICATION_TYPE":"U","SITE":"AFETR","COUNTRY_CODE":"US","SEMIMAJOR_AXIS":"6925.350","OBJECT_ID":"2021-040L","TLE_LINE2":"2 48438  53.0535 147.1653 0001928  63.0842 297.0343 15.06399458 99848","LAUNCH_DATE":"2021-05-09","NORAD_CAT_ID":"48438","RCS_SIZE":"LARGE","INCLINATION":"53.0535","FILE":"3807947","MEAN_MOTION_DDOT":"0.0000000000000","ARG_OF_PERICENTER":"63.0842","OBJECT_NAME":"STARLINK-2640","TIME_SYSTEM":"UTC","REF_FRAME":"TEME","APOAPSIS":"548.550","MEAN_MOTION_DOT":"0.00008455","PERIAPSIS":"545.880","MEAN_MOTION":"15.06399458","OBJECT_TYPE":"PAYLOAD","TLE_LINE1":"1 48438U 21040L   23049.66271723  .00008455  00000-0  58583-3 0  9990","ELEMENT_SET_NO":"999","RA_OF_ASC_NODE":"147.1653","PERIOD":"95.592","EPHEMERIS_TYPE":"0"},{"REF_FRAME":"TEME","TIME_SYSTEM":"UTC","MEAN_MOTION_DDOT":"0.0000000000000","ARG_OF_PERICENTER":"74.7604","OBJECT_NAME":"STARLINK-2583","APOAPSIS":"548.139","INCLINATION":"53.0538","RCS_SIZE":"LARGE","FILE":"3807947","ELEMENT_SET_NO":"999","TLE_LINE1":"1 48439U 21040M   23049.65903440  .00026413  00000-0  17862-2 0  9996","OBJECT_TYPE":"PAYLOAD","EPHEMERIS_TYPE":"0","PERIOD":"95.593","RA_OF_ASC_NODE":"147.1803","PERIAPSIS":"546.383","MEAN_MOTION":"15.06384616","MEAN_MOTION_DOT":"0.00026413","MEAN_ELEMENT_THEORY":"SGP4","CLASSIFICATION_TYPE":"U","REV_AT_EPOCH":"9984","CENTER_NAME":"EARTH","GP_ID":"225946710","BSTAR":"0.00178620000000","MEAN_ANOMALY":"285.3525","DECAY_DATE":null,"ECCENTRICITY":"0.00012680","EPOCH":"2023-02-18T15:49:00.572160","LAUNCH_DATE":"2021-05-09","TLE_LINE2":"2 48439  53.0538 147.1803 0001268  74.7604 285.3525 15.06384616 99843","NORAD_CAT_ID":"48439","OBJECT_ID":"2021-040M","SEMIMAJOR_AXIS":"6925.396","COUNTRY_CODE":"US","SITE":"AFETR"},{"MEAN_ELEMENT_THEORY":"SGP4","CENTER_NAME":"EARTH","REV_AT_EPOCH":"9854","CLASSIFICATION_TYPE":"U","GP_ID":"225922930","MEAN_ANOMALY":"260.5931","BSTAR":"0.00245650000000","ECCENTRICITY":"0.00008890","EPOCH":"2023-02-18T12:32:36.859776","DECAY_DATE":null,"LAUNCH_DATE":"2021-05-09","TLE_LINE2":"2 48440  53.0539 147.7930 0000889  99.5159 260.5931 15.06393862 98546","NORAD_CAT_ID":"48440","OBJECT_ID":"2021-040N","SEMIMAJOR_AXIS":"6925.367","COUNTRY_CODE":"US","SITE":"AFETR","TIME_SYSTEM":"UTC","REF_FRAME":"TEME","ARG_OF_PERICENTER":"99.5159","MEAN_MOTION_DDOT":"0.0000000000000","OBJECT_NAME":"STARLINK-2682","APOAPSIS":"547.848","INCLINATION":"53.0539","RCS_SIZE":"LARGE","FILE":"3807124","OBJECT_TYPE":"PAYLOAD","TLE_LINE1":"1 48440U 21040N   23049.52264884  .00036492  00000-0  24565-2 0  9992","ELEMENT_SET_NO":"999","PERIOD":"95.593","EPHEMERIS_TYPE":"0","RA_OF_ASC_NODE":"147.7930","MEAN_MOTION_DOT":"0.00036492","PERIAPSIS":"546.617","MEAN_MOTION":"15.06393862"},{"OBJECT_ID":"2021-040P","LAUNCH_DATE":"2021-05-09","TLE_LINE2":"2 48441  53.0546 146.6187 0001137  68.3247 291.7863 15.06386429 99863","NORAD_CAT_ID":"48441","COUNTRY_CODE":"US","SITE":"AFETR","SEMIMAJOR_AXIS":"6925.390","MEAN_ELEMENT_THEORY":"SGP4","CLASSIFICATION_TYPE":"U","CENTER_NAME":"EARTH","REV_AT_EPOCH":"9986","GP_ID":"225946642","MEAN_ANOMALY":"291.7863","BSTAR":"0.00188250000000","DECAY_DATE":null,"ECCENTRICITY":"0.00011370","EPOCH":"2023-02-18T18:49:28.822368","TLE_LINE1":"1 48441U 21040P   23049.78436137  .00027859  00000-0  18825-2 0  9992","ELEMENT_SET_NO":"999","OBJECT_TYPE":"PAYLOAD","RA_OF_ASC_NODE":"146.6187","EPHEMERIS_TYPE":"0","PERIOD":"95.593","PERIAPSIS":"546.468","MEAN_MOTION":"15.06386429","MEAN_MOTION_DOT":"0.00027859","OBJECT_NAME":"STARLINK-2702","MEAN_MOTION_DDOT":"0.0000000000000","ARG_OF_PERICENTER":"68.3247","TIME_SYSTEM":"UTC","REF_FRAME":"TEME","APOAPSIS":"548.043","RCS_SIZE":"LARGE","INCLINATION":"53.0546","FILE":"3807947"},{"SEMIMAJOR_AXIS":"6925.356","SITE":"AFETR","COUNTRY_CODE":"US","LAUNCH_DATE":"2021-05-09","TLE_LINE2":"2 48442  53.0519 146.6411 0001157  89.9547 270.1574 15.06397467 99862","NORAD_CAT_ID":"48442","OBJECT_ID":"2021-040Q","ECCENTRICITY":"0.00011570","EPOCH":"2023-02-18T18:44:08.928960","DECAY_DATE":null,"BSTAR":"0.00005438200000","GP_ID":"225946637","MEAN_ANOMALY":"270.1574","REV_AT_EPOCH":"9986","CENTER_NAME":"EARTH","CLASSIFICATION_TYPE":"U","MEAN_ELEMENT_THEORY":"SGP4","MEAN_MOTION_DOT":"0.00000529","PERIAPSIS":"546.420","MEAN_MOTION":"15.06397467","PERIOD":"95.592","EPHEMERIS_TYPE":"0","RA_OF_ASC_NODE":"146.6411","OBJECT_TYPE":"PAYLOAD","ELEMENT_SET_NO":"999","TLE_LINE1":"1 48442U 21040Q   23049.78065890  .00000529  00000-0  54382-4 0  9992","FILE":"3807947","INCLINATION":"53.0519","RCS_SIZE":"LARGE","APOAPSIS":"548.023","TIME_SYSTEM":"UTC","REF_FRAME":"TEME","MEAN_MOTION_DDOT":"0.0000000000000","OBJECT_NAME":"STARLINK-2644","ARG_OF_PERICENTER":"89.9547"},{"INCLINATION":"53.0530","RCS_SIZE":"LARGE","FILE":"3807950","REF_FRAME":"TEME","TIME_SYSTEM":"UTC","OBJECT_NAME":"STARLINK-2663","MEAN_MOTION_DDOT":"0.0000000000000","ARG_OF_PERICENTER":"84.7809","APOAPSIS":"548.087","PERIAPSIS":"546.405","MEAN_MOTION":"15.06389409","MEAN_MOTION_DOT":"-0.00001592","ELEMENT_SET_NO":"999","TLE_LINE1":"1 48443U 21040R   23049.77697409 -.00001592  00000-0 -88044-4 0  9994","OBJECT_TYPE":"PAYLOAD","EPHEMERIS_TYPE":"0","PERIOD":"95.593","RA_OF_ASC_NODE":"146.6582","BSTAR":"-0.00008804400000","GP_ID":"225946751","MEAN_ANOMALY":"275.3319","DECAY_DATE":null,"ECCENTRICITY":"0.00012140","EPOCH":"2023-02-18T18:38:50.561376","MEAN_ELEMENT_THEORY":"SGP4","CLASSIFICATION_TYPE":"U","REV_AT_EPOCH":"9986","CENTER_NAME":"EARTH","SEMIMAJOR_AXIS":"6925.381","SITE":"AFETR","COUNTRY_CODE":"US","LAUNCH_DATE":"2021-05-09","TLE_LINE2":"2 48443  53.0530 146.6582 0001214  84.7809 275.3319 15.06389409 99864","NORAD_CAT_ID":"48443","OBJECT_ID":"2021-040R"},{"FILE":"3807124","INCLINATION":"53.0524","RCS_SIZE":"LARGE","APOAPSIS":"547.911","REF_FRAME":"TEME","TIME_SYSTEM":"UTC","OBJECT_NAME":"STARLINK-2645","MEAN_MOTION_DDOT":"0.0000000000000","ARG_OF_PERICENTER":"85.9202","MEAN_MOTION_DOT":"0.00018320","PERIAPSIS":"546.609","MEAN_MOTION":"15.06384850","PERIOD":"95.593","EPHEMERIS_TYPE":"0","RA_OF_ASC_NODE":"147.5665","OBJECT_TYPE":"PAYLOAD","TLE_LINE1":"1 48444U 21040S   23049.57425592  .00018320  00000-0  12461-2 0  9998","ELEMENT_SET_NO":"999","EPOCH":"2023-02-18T13:46:55.711488","ECCENTRICITY":"0.00009400","DECAY_DATE":null,"GP_ID":"225923425","BSTAR":"0.00124610000000","MEAN_ANOMALY":"274.1894","REV_AT_EPOCH":"9855","CENTER_NAME":"EARTH","CLASSIFICATION_TYPE":"U","MEAN_ELEMENT_THEORY":"SGP4","SEMIMAJOR_AXIS":"6925.395","COUNTRY_CODE":"US","SITE":"AFETR","TLE_LINE2":"2 48444  53.0524 147.5665 0000940  85.9202 274.1894 15.06384850 98550","NORAD_CAT_ID":"48444","LAUNCH_DATE":"2021-05-09","OBJECT_ID":"2021-040S"},{"NORAD_CAT_ID":"48445","TLE_LINE2":"2 48445  53.0528 146.9872 0001137  91.1147 268.9972 15.06387279 99854","LAUNCH_DATE":"2021-05-09","OBJECT_ID":"2021-040T","SEMIMAJOR_AXIS":"6925.388","SITE":"AFETR","COUNTRY_CODE":"US","MEAN_ELEMENT_THEORY":"SGP4","CLASSIFICATION_TYPE":"U","CENTER_NAME":"EARTH","REV_AT_EPOCH":"9985","GP_ID":"225946675","MEAN_ANOMALY":"268.9972","BSTAR":"0.00132130000000","DECAY_DATE":null,"EPOCH":"2023-02-18T16:52:41.842848","ECCENTRICITY":"0.00011370","ELEMENT_SET_NO":"999","TLE_LINE1":"1 48445U 21040T   23049.70326207  .00019447  00000-0  13213-2 0  9994","OBJECT_TYPE":"PAYLOAD","EPHEMERIS_TYPE":"0","PERIOD":"95.593","RA_OF_ASC_NODE":"146.9872","MEAN_MOTION":"15.06387279","PERIAPSIS":"546.465","MEAN_MOTION_DOT":"0.00019447","REF_FRAME":"TEME","TIME_SYSTEM":"UTC","ARG_OF_PERICENTER":"91.1147","MEAN_MOTION_DDOT":"0.0000000000000","OBJECT_NAME":"STARLINK-2634","APOAPSIS":"548.040","INCLINATION":"53.0528","RCS_SIZE":"LARGE","FILE":"3807950"},{"OBJECT_ID":"2021-040U","NORAD_CAT_ID":"48446","TLE_LINE2":"2 48446  53.0521 147.0032 0000953  78.9473 281.1623 15.06443209 99854","LAUNCH_DATE":"2021-05-09","COUNTRY_CODE":"US","SITE":"AFETR","SEMIMAJOR_AXIS":"6925.216","REV_AT_EPOCH":"9985","CENTER_NAME":"EARTH","CLASSIFICATION_TYPE":"U","MEAN_ELEMENT_THEORY":"SGP4","ECCENTRICITY":"0.00009530","EPOCH":"2023-02-18T16:47:20.948928","DECAY_DATE":null,"GP_ID":"225946673","BSTAR":"0.00259340000000","MEAN_ANOMALY":"281.1623","RA_OF_ASC_NODE":"147.0032","PERIOD":"95.589","EPHEMERIS_TYPE":"0","OBJECT_TYPE":"PAYLOAD","TLE_LINE1":"1 48446U 21040U   23049.69954802  .00038605  00000-0  25934-2 0  9991","ELEMENT_SET_NO":"999","MEAN_MOTION_DOT":"0.00038605","MEAN_MOTION":"15.06443209","PERIAPSIS":"546.421","APOAPSIS":"547.741","MEAN_MOTION_DDOT":"0.0000000000000","OBJECT_NAME":"STARLINK-2247","ARG_OF_PERICENTER":"78.9473","TIME_SYSTEM":"UTC","REF_FRAME":"TEME","FILE":"3807950","RCS_SIZE":"LARGE","INCLINATION":"53.0521"},{"MEAN_MOTION":"15.06354026","PERIAPSIS":"546.442","MEAN_MOTION_DOT":"0.00040963","ELEMENT_SET_NO":"999","TLE_LINE1":"1 48447U 21040V   23049.56321535  .00040963  00000-0  27564-2 0  9990","OBJECT_TYPE":"PAYLOAD","RA_OF_ASC_NODE":"147.6205","EPHEMERIS_TYPE":"0","PERIOD":"95.595","RCS_SIZE":"LARGE","INCLINATION":"53.0504","FILE":"3807950","MEAN_MOTION_DDOT":"0.0000000000000","OBJECT_NAME":"STARLINK-2269","ARG_OF_PERICENTER":"91.9122","REF_FRAME":"TEME","TIME_SYSTEM":"UTC","APOAPSIS":"548.267","COUNTRY_CODE":"US","SITE":"AFETR","SEMIMAJOR_AXIS":"6925.489","OBJECT_ID":"2021-040V","LAUNCH_DATE":"2021-05-09","TLE_LINE2":"2 48447  53.0504 147.6205 0001318  91.9122 268.2018 15.06354026 99106","NORAD_CAT_ID":"48447","BSTAR":"0.00275640000000","GP_ID":"225946744","MEAN_ANOMALY":"268.2018","DECAY_DATE":null,"EPOCH":"2023-02-18T13:31:01.806240","ECCENTRICITY":"0.00013180","MEAN_ELEMENT_THEORY":"SGP4","CLASSIFICATION_TYPE":"U","REV_AT_EPOCH":"9910","CENTER_NAME":"EARTH"}];
